start=new Date('2022-09-23T00:00:00.000Z').valueOf();
sats=[{"OBJECT_NAME":"STARLINK-3102","TLE_LINE2":"2 49151  70.0011 200.9187 0003326 258.0424 102.0362 14.96717711 58862","MEAN_MOTION_DDOT":"0.0000000000000","ELEMENT_SET_NO":"999","OBJECT_TYPE":"PAYLOAD","REV_AT_EPOCH":"5886","INCLINATION":"70.0011","MEAN_MOTION":"14.96717711","TIME_SYSTEM":"UTC","RCS_SIZE":"LARGE","CLASSIFICATION_TYPE":"U","LAUNCH_DATE":"2021-09-14","EPHEMERIS_TYPE":"0","MEAN_ELEMENT_THEORY":"SGP4","SEMIMAJOR_AXIS":"6955.183","SITE":"AFWTR","TLE_LINE1":"1 49151U 21082X   22265.86295588  .00000493  00000-0  51107-4 0  9995","MEAN_ANOMALY":"102.0362","CENTER_NAME":"EARTH","PERIOD":"96.211","DECAY_DATE":null,"MEAN_MOTION_DOT":"0.00000493","OBJECT_ID":"2021-082X","RA_OF_ASC_NODE":"200.9187","APOAPSIS":"579.362","REF_FRAME":"TEME","GP_ID":"213205849","EPOCH":"2022-09-22T20:42:39.388032","FILE":"3580342","ECCENTRICITY":"0.00033260","NORAD_CAT_ID":"49151","COUNTRY_CODE":"US","PERIAPSIS":"574.735","ARG_OF_PERICENTER":"258.0424","BSTAR":"0.00005110700000"},{"ECCENTRICITY":"0.00033670","NORAD_CAT_ID":"49152","FILE":"3580594","EPOCH":"2022-09-22T21:42:50.976288","GP_ID":"213261370","BSTAR":"-0.00003616800000","ARG_OF_PERICENTER":"255.4112","COUNTRY_CODE":"US","PERIAPSIS":"574.724","CENTER_NAME":"EARTH","MEAN_ANOMALY":"104.6673","PERIOD":"96.211","DECAY_DATE":null,"TLE_LINE1":"1 49152U 21082Y   22265.90475667 -.00000506  00000-0 -36168-4 0  9996","SITE":"AFWTR","APOAPSIS":"579.407","REF_FRAME":"TEME","RA_OF_ASC_NODE":"200.8012","OBJECT_ID":"2021-082Y","MEAN_MOTION_DOT":"-0.00000506","RCS_SIZE":"LARGE","CLASSIFICATION_TYPE":"U","LAUNCH_DATE":"2021-09-14","MEAN_ELEMENT_THEORY":"SGP4","SEMIMAJOR_AXIS":"6955.201","EPHEMERIS_TYPE":"0","INCLINATION":"69.9985","REV_AT_EPOCH":"5878","ELEMENT_SET_NO":"999","OBJECT_TYPE":"PAYLOAD","MEAN_MOTION_DDOT":"0.0000000000000","TLE_LINE2":"2 49152  69.9985 200.8012 0003367 255.4112 104.6673 14.96712112 58780","OBJECT_NAME":"STARLINK-3081","MEAN_MOTION":"14.96712112","TIME_SYSTEM":"UTC"},{"LAUNCH_DATE":"2021-09-14","RCS_SIZE":"LARGE","CLASSIFICATION_TYPE":"U","SEMIMAJOR_AXIS":"6955.176","MEAN_ELEMENT_THEORY":"SGP4","EPHEMERIS_TYPE":"0","REV_AT_EPOCH":"5887","INCLINATION":"69.9985","OBJECT_TYPE":"PAYLOAD","ELEMENT_SET_NO":"999","TLE_LINE2":"2 49153  69.9985 200.7870 0003368 263.1403  96.9372 14.96720091 58876","OBJECT_NAME":"STARLINK-3072","MEAN_MOTION_DDOT":"0.0000000000000","TIME_SYSTEM":"UTC","MEAN_MOTION":"14.96720091","NORAD_CAT_ID":"49153","ECCENTRICITY":"0.00033680","FILE":"3580594","EPOCH":"2022-09-22T22:04:49.558656","GP_ID":"213260118","BSTAR":"0.00006823700000","ARG_OF_PERICENTER":"263.1403","PERIAPSIS":"574.698","COUNTRY_CODE":"US","PERIOD":"96.210","DECAY_DATE":null,"CENTER_NAME":"EARTH","MEAN_ANOMALY":"96.9372","TLE_LINE1":"1 49153U 21082Z   22265.92001804  .00000690  00000-0  68237-4 0  9991","SITE":"AFWTR","REF_FRAME":"TEME","APOAPSIS":"579.383","RA_OF_ASC_NODE":"200.7870","OBJECT_ID":"2021-082Z","MEAN_MOTION_DOT":"0.00000690"},{"TIME_SYSTEM":"UTC","MEAN_MOTION":"14.98387733","OBJECT_NAME":"STARLINK-3068","TLE_LINE2":"2 49154  69.9992 220.9153 0003832 251.3836 108.6907 14.98387733 58248","MEAN_MOTION_DDOT":"0.0000000000000","REV_AT_EPOCH":"5824","INCLINATION":"69.9992","OBJECT_TYPE":"PAYLOAD","ELEMENT_SET_NO":"999","SEMIMAJOR_AXIS":"6950.014","MEAN_ELEMENT_THEORY":"SGP4","EPHEMERIS_TYPE":"0","LAUNCH_DATE":"2021-09-14","RCS_SIZE":"LARGE","CLASSIFICATION_TYPE":"U","RA_OF_ASC_NODE":"220.9153","MEAN_MOTION_DOT":"-0.00010136","OBJECT_ID":"2021-082AA","REF_FRAME":"TEME","APOAPSIS":"574.543","TLE_LINE1":"1 49154U 21082AA  22265.89477840 -.00010136  00000-0 -84162-3 0  9997","SITE":"AFWTR","DECAY_DATE":null,"PERIOD":"96.103","MEAN_ANOMALY":"108.6907","CENTER_NAME":"EARTH","ARG_OF_PERICENTER":"251.3836","PERIAPSIS":"569.216","COUNTRY_CODE":"US","BSTAR":"-0.00084162000000","GP_ID":"213260368","EPOCH":"2022-09-22T21:28:28.853760","NORAD_CAT_ID":"49154","ECCENTRICITY":"0.00038320","FILE":"3580594"},{"RCS_SIZE":"LARGE","CLASSIFICATION_TYPE":"U","LAUNCH_DATE":"2021-09-14","MEAN_ELEMENT_THEORY":"SGP4","SEMIMAJOR_AXIS":"6955.224","EPHEMERIS_TYPE":"0","REV_AT_EPOCH":"5874","INCLINATION":"70.0041","ELEMENT_SET_NO":"999","OBJECT_TYPE":"PAYLOAD","OBJECT_NAME":"STARLINK-3060","TLE_LINE2":"2 49155  70.0041 200.7181 0003233 255.1928 104.8872 14.96704522 58744","MEAN_MOTION_DDOT":"0.0000000000000","MEAN_MOTION":"14.96704522","TIME_SYSTEM":"UTC","ECCENTRICITY":"0.00032330","NORAD_CAT_ID":"49155","FILE":"3580594","EPOCH":"2022-09-22T21:35:30.706080","GP_ID":"213261120","BSTAR":"0.00107020000000","ARG_OF_PERICENTER":"255.1928","COUNTRY_CODE":"US","PERIAPSIS":"574.840","MEAN_ANOMALY":"104.8872","CENTER_NAME":"EARTH","PERIOD":"96.211","DECAY_DATE":null,"TLE_LINE1":"1 49155U 21082AB  22265.89966095  .00012176  00000-0  10702-2 0  9995","SITE":"AFWTR","APOAPSIS":"579.338","REF_FRAME":"TEME","RA_OF_ASC_NODE":"200.7181","OBJECT_ID":"2021-082AB","MEAN_MOTION_DOT":"0.00012176"},{"ARG_OF_PERICENTER":"256.5184","PERIAPSIS":"575.311","COUNTRY_CODE":"US","BSTAR":"0.00107160000000","EPOCH":"2022-09-22T21:28:52.904928","GP_ID":"213261863","NORAD_CAT_ID":"49156","ECCENTRICITY":"0.00027430","FILE":"3580594","RA_OF_ASC_NODE":"200.8293","MEAN_MOTION_DOT":"0.00012178","OBJECT_ID":"2021-082AC","REF_FRAME":"TEME","APOAPSIS":"579.127","TLE_LINE1":"1 49156U 21082AC  22265.89505677  .00012178  00000-0  10716-2 0  9998","SITE":"AFWTR","DECAY_DATE":null,"PERIOD":"96.214","CENTER_NAME":"EARTH","MEAN_ANOMALY":"103.5668","SEMIMAJOR_AXIS":"6955.354","MEAN_ELEMENT_THEORY":"SGP4","EPHEMERIS_TYPE":"0","LAUNCH_DATE":"2021-09-14","RCS_SIZE":"LARGE","CLASSIFICATION_TYPE":"U","TIME_SYSTEM":"UTC","MEAN_MOTION":"14.96662569","TLE_LINE2":"2 49156  69.9972 200.8293 0002743 256.5184 103.5668 14.96662569 58747","OBJECT_NAME":"STARLINK-3085","MEAN_MOTION_DDOT":"0.0000000000000","REV_AT_EPOCH":"5874","INCLINATION":"69.9972","OBJECT_TYPE":"PAYLOAD","ELEMENT_SET_NO":"999"},{"BSTAR":"0.00015265000000","PERIAPSIS":"568.626","COUNTRY_CODE":"US","ARG_OF_PERICENTER":"242.9988","FILE":"3580594","NORAD_CAT_ID":"49157","ECCENTRICITY":"0.00049190","GP_ID":"213260611","EPOCH":"2022-09-22T21:21:38.175552","REF_FRAME":"TEME","APOAPSIS":"575.464","OBJECT_ID":"2021-082AD","MEAN_MOTION_DOT":"0.00001729","RA_OF_ASC_NODE":"220.9244","DECAY_DATE":null,"PERIOD":"96.107","CENTER_NAME":"EARTH","MEAN_ANOMALY":"117.0669","SITE":"AFWTR","TLE_LINE1":"1 49157U 21082AD  22265.89002518  .00001729  00000-0  15265-3 0  9990","EPHEMERIS_TYPE":"0","SEMIMAJOR_AXIS":"6950.180","MEAN_ELEMENT_THEORY":"SGP4","LAUNCH_DATE":"2021-09-14","CLASSIFICATION_TYPE":"U","RCS_SIZE":"LARGE","TIME_SYSTEM":"UTC","MEAN_MOTION":"14.98334261","OBJECT_TYPE":"PAYLOAD","ELEMENT_SET_NO":"999","INCLINATION":"70.0010","REV_AT_EPOCH":"5826","TLE_LINE2":"2 49157  70.0010 220.9244 0004919 242.9988 117.0669 14.98334261 58266","MEAN_MOTION_DDOT":"0.0000000000000","OBJECT_NAME":"STARLINK-3051"},{"RCS_SIZE":"LARGE","CLASSIFICATION_TYPE":"U","LAUNCH_DATE":"2021-09-14","EPHEMERIS_TYPE":"0","MEAN_ELEMENT_THEORY":"SGP4","SEMIMAJOR_AXIS":"6950.208","OBJECT_NAME":"STARLINK-3083","TLE_LINE2":"2 49158  69.9994 220.9549 0003106 261.3929  98.6878 14.98325175 58260","MEAN_MOTION_DDOT":"0.0000000000000","ELEMENT_SET_NO":"999","OBJECT_TYPE":"PAYLOAD","REV_AT_EPOCH":"5826","INCLINATION":"69.9994","MEAN_MOTION":"14.98325175","TIME_SYSTEM":"UTC","GP_ID":"213260861","EPOCH":"2022-09-22T21:14:46.478688","FILE":"3580594","ECCENTRICITY":"0.00031060","NORAD_CAT_ID":"49158","COUNTRY_CODE":"US","PERIAPSIS":"569.914","ARG_OF_PERICENTER":"261.3929","BSTAR":"-0.00000724720000","SITE":"AFWTR","TLE_LINE1":"1 49158U 21082AE  22265.88526017 -.00000179  00000-0 -72472-5 0  9990","MEAN_ANOMALY":"98.6878","CENTER_NAME":"EARTH","PERIOD":"96.107","DECAY_DATE":null,"OBJECT_ID":"2021-082AE","MEAN_MOTION_DOT":"-0.00000179","RA_OF_ASC_NODE":"220.9549","APOAPSIS":"574.232","REF_FRAME":"TEME"},{"INCLINATION":"69.9990","REV_AT_EPOCH":"5766","ELEMENT_SET_NO":"999","OBJECT_TYPE":"PAYLOAD","TLE_LINE2":"2 49159  69.9990 242.7149 0003318 248.1929 111.8877 14.98327844 57668","MEAN_MOTION_DDOT":"0.0000000000000","OBJECT_NAME":"STARLINK-3056","MEAN_MOTION":"14.98327844","TIME_SYSTEM":"UTC","CLASSIFICATION_TYPE":"U","RCS_SIZE":"LARGE","LAUNCH_DATE":"2021-09-14","MEAN_ELEMENT_THEORY":"SGP4","SEMIMAJOR_AXIS":"6950.200","EPHEMERIS_TYPE":"0","MEAN_ANOMALY":"111.8877","CENTER_NAME":"EARTH","PERIOD":"96.107","DECAY_DATE":null,"TLE_LINE1":"1 49159U 21082AF  22265.18773183 -.00000480  00000-0 -32413-4 0  9997","SITE":"AFWTR","APOAPSIS":"574.371","REF_FRAME":"TEME","RA_OF_ASC_NODE":"242.7149","OBJECT_ID":"2021-082AF","MEAN_MOTION_DOT":"-0.00000480","ECCENTRICITY":"0.00033180","NORAD_CAT_ID":"49159","FILE":"3579843","EPOCH":"2022-09-22T04:30:20.030112","GP_ID":"213195957","BSTAR":"-0.00003241300000","ARG_OF_PERICENTER":"248.1929","COUNTRY_CODE":"US","PERIAPSIS":"569.758"},{"MEAN_ANOMALY":"100.8089","CENTER_NAME":"EARTH","DECAY_DATE":null,"PERIOD":"96.107","TLE_LINE1":"1 49160U 21082AG  22264.44383318 -.00000188  00000-0 -79844-5 0  9999","SITE":"AFWTR","APOAPSIS":"573.921","REF_FRAME":"TEME","RA_OF_ASC_NODE":"244.5848","OBJECT_ID":"2021-082AG","MEAN_MOTION_DOT":"-0.00000188","ECCENTRICITY":"0.00026880","NORAD_CAT_ID":"49160","FILE":"3579338","GP_ID":"213160489","EPOCH":"2022-09-21T10:39:07.186752","BSTAR":"-0.00000798440000","ARG_OF_PERICENTER":"259.2767","COUNTRY_CODE":"US","PERIAPSIS":"570.185","REV_AT_EPOCH":"5753","INCLINATION":"69.9996","ELEMENT_SET_NO":"999","OBJECT_TYPE":"PAYLOAD","TLE_LINE2":"2 49160  69.9996 244.5848 0002688 259.2767 100.8089 14.98331501 57538","MEAN_MOTION_DDOT":"0.0000000000000","OBJECT_NAME":"STARLINK-3095","MEAN_MOTION":"14.98331501","TIME_SYSTEM":"UTC","RCS_SIZE":"LARGE","CLASSIFICATION_TYPE":"U","LAUNCH_DATE":"2021-09-14","MEAN_ELEMENT_THEORY":"SGP4","SEMIMAJOR_AXIS":"6950.188","EPHEMERIS_TYPE":"0"}];
